STARLINK-30497          
1 58011U 23153W   26067.73183320  .00002084  00000+0  87317-4 0  9990
2 58011  43.0056  72.1224 0001639 251.9212 108.1461 15.26752453134755
TEVEL2-3                
1 63218U 25052J   26068.64540225  .00020365  00000+0  69446-3 0  9991
2 63218  97.3994 324.7775 0004761 105.7353 254.4413 15.30377031 54855
